BEIDOU-2 IGSO-1 (C06)   
1 36828U 10036A   26113.83052642 -.00000109  00000+0  00000+0 0  9999
2 36828  54.2917 163.4511 0058355 224.0017 229.7808  1.00288096 57552
BEIDOU-2 G4 (C04)       
1 37210U 10057A   26116.52571090 -.00000123  00000+0  00000+0 0  9996
2 37210   3.5210  69.2327 0006521 213.0817 281.3977  1.00270097 56779
BEIDOU-2 IGSO-2 (C07)   
1 37256U 10068A   26116.37208593 -.00000219  00000+0  00000+0 0  9992
2 37256  47.6454 272.4714 0053173 211.4981 329.0054  1.00299816 56276
BEIDOU-2 IGSO-3 (C08)   
1 37384U 11013A   26114.73250720 -.00000201  00000+0  00000+0 0  9993
2 37384  62.3393  40.6572 0033701 188.3614 355.5484  1.00280536 55124
BEIDOU-2 IGSO-4 (C09)   
1 37763U 11038A   26110.95130253 -.00000015  00000+0  00000+0 0  9992
2 37763  54.5868 166.1972 0158375 231.6843 245.8930  1.00257080 54072
BEIDOU-2 IGSO-5 (C10)   
1 37948U 11073A   26114.90441628 -.00000195  00000+0  00000+0 0  9995
2 37948  47.7775 272.2003 0110571 220.5837 139.3975  1.00260420 52603
BEIDOU-2 G5 (C05)       
1 38091U 12008A   26116.50567990  .00000047  00000+0  00000+0 0  9998
2 38091   3.4471  69.9871 0012301 265.8643 119.4374  1.00272955 51852
BEIDOU-2 M3 (C11)       
1 38250U 12018A   26116.10380698 -.00000054  00000+0  00000+0 0  9999
2 38250  55.8032 306.6299 0019715 278.1190  81.6621  1.86229687 94971
BEIDOU-2 M4 (C12)       
1 38251U 12018B   26113.35122763 -.00000040  00000+0  00000+0 0  9996
2 38251  55.7057 305.9412 0011064 284.1649  75.7156  1.86229378 94910
BEIDOU-2 M6 (C14)       
1 38775U 12050B   26115.20896256 -.00000027  00000+0  00000+0 0  9999
2 38775  56.5004  64.6451 0014489 348.5468  11.3943  1.86230847 92328
BEIDOU-2 G6 (C02)       
1 38953U 12059A   26116.51061991 -.00000184  00000+0  00000+0 0  9995
2 38953   4.2930  74.0562 0010559 313.9492  94.2769  1.00274630 49398
BEIDOU-3S IGSO-1S (C31) 
1 40549U 15019A   26112.98991377 -.00000171  00000+0  00000+0 0  9991
2 40549  49.2998 296.1212 0037208 189.9963 176.4804  1.00261100 40525
BEIDOU-3S M2S (C58)     
1 40748U 15037A   26116.23924189 -.00000055  00000+0  00000+0 0  9992
2 40748  54.9173 303.8339 0007401 271.2461  88.6693  1.86231742 73158
BEIDOU-3S M1S (C57)     
1 40749U 15037B   26115.37922549 -.00000049  00000+0  00000+0 0  9998
2 40749  54.9149 303.8513 0004457  51.4305 308.6107  1.86254812 73146
BEIDOU-3S IGSO-2S (C56) 
1 40938U 15053A   26115.85927830 -.00000170  00000+0  00000+0 0  9992
2 40938  49.3057 259.4015 0063664 190.0168 170.5978  1.00271571 38833
BEIDOU-2 IGSO-6 (C13)   
1 41434U 16021A   26112.85559397 -.00000169  00000+0  00000+0 0  9994
2 41434  60.1522  38.5901 0055866 232.0601 343.5038  1.00270364 36923
BEIDOU-2 G7 (C03)       
1 41586U 16037A   26116.51814872 -.00000363  00000+0  00000+0 0  9994
2 41586   1.5942  68.8082 0007692 354.3547  88.3279  1.00265380  6372
